ONEWEB-0683             
1 56719U 23068K   25281.45776933  .00000181  00000+0  44569-3 0  9999
2 56719  87.8989 309.4179 0002150  92.1301 268.0075 13.15546311116327
ONEWEB-0684             
1 56720U 23068L   25281.46569280  .00000138  00000+0  33312-3 0  9993
2 56720  87.8983 309.4126 0002227 134.4387 225.6926 13.15547038116156
ONEWEB-0686             
1 56721U 23068M   25281.46574677  .00000032  00000+0  50225-4 0  9996
2 56721  87.8959 278.9533 0002164  93.2749 266.8629 13.16593839118594
ONEWEB-0694             
1 56722U 23068N   25281.50850113  .00000069  00000+0  14565-3 0  9990
2 56722  87.8979 278.8793 0002292  86.1809 273.9584 13.16594156118653
ONEWEB-0696             
1 56723U 23068P   25281.49896863 -.00000099  00000+0 -29617-3 0  9990
2 56723  87.8981 309.4617 0001690 102.6097 257.5223 13.15547839116276
ONEWEB-0703             
1 56724U 23068Q   25281.50847779 -.00000024  00000+0 -97401-4 0  9990
2 56724  87.8974 309.4432 0000834 115.3482 244.7735 13.15547971116163
ONEWEB-0015             
1 61594U 24188A   25281.45381574 -.00000434  00000+0 -12616-2 0  9993
2 61594  87.8806  71.2383 0001626  71.8367 288.2937 13.11417531 51467
